[{"OBJECT_NAME":"SVYATOBOR 1 (RS60S)","OBJECT_ID":"2023-091X","EPOCH":"2026-03-09T23:06:11.081664","MEAN_MOTION":15.2482043,"ECCENTRICITY":0.00111996,"INCLINATION":97.5206,"RA_OF_ASC_NODE":132.3062,"ARG_OF_PERICENTER":84.4206,"MEAN_ANOMALY":275.8308,"EPHEMERIS_TYPE":0,"CLASSIFICATION_TYPE":"U","NORAD_CAT_ID":57187,"ELEMENT_SET_NO":999,"REV_AT_EPOCH":14918,"BSTAR":0.00046454276,"MEAN_MOTION_DOT":0.00011484,"MEAN_MOTION_DDOT":0},{"OBJECT_NAME":"STARLINK-32106","OBJECT_ID":"2024-086J","EPOCH":"2026-03-09T09:10:45.482304","MEAN_MOTION":15.27572207,"ECCENTRICITY":0.00031137,"INCLINATION":43.0082,"RA_OF_ASC_NODE":53.9773,"ARG_OF_PERICENTER":282.9048,"MEAN_ANOMALY":77.1456,"EPHEMERIS_TYPE":0,"CLASSIFICATION_TYPE":"U","NORAD_CAT_ID":59690,"ELEMENT_SET_NO":999,"REV_AT_EPOCH":10415,"BSTAR":-2.1800604e-5,"MEAN_MOTION_DOT":-8.63e-6,"MEAN_MOTION_DDOT":0}]
